start=new Date('2022-09-12T00:00:00.000Z').valueOf();
sats=[{"LAUNCH_DATE":"2022-05-14","SITE":"AFETR","APOAPSIS":"541.147","COUNTRY_CODE":"US","OBJECT_ID":"2022-052J","RA_OF_ASC_NODE":"241.7862","TIME_SYSTEM":"UTC","SEMIMAJOR_AXIS":"6917.955","PERIAPSIS":"538.493","EPOCH":"2022-09-11T22:00:00.999936","MEAN_MOTION_DDOT":"0.0000000000000","TLE_LINE2":"2 52606  53.2161 241.7862 0001918  46.0180 251.6440 15.08815569  1301","TLE_LINE1":"1 52606U 22052J   22254.91667824  .00041437  00000-0  26081-2 0  9996","EPHEMERIS_TYPE":"0","REV_AT_EPOCH":"130","OBJECT_TYPE":"PAYLOAD","FILE":"3569361","NORAD_CAT_ID":"52606","MEAN_ELEMENT_THEORY":"SGP4","ARG_OF_PERICENTER":"46.0180","BSTAR":"0.00260810000000","CLASSIFICATION_TYPE":"U","ECCENTRICITY":"0.00019180","GP_ID":"212359889","REF_FRAME":"TEME","PERIOD":"95.439","RCS_SIZE":"LARGE","CENTER_NAME":"EARTH","ELEMENT_SET_NO":"999","DECAY_DATE":null,"OBJECT_NAME":"STARLINK-3928","MEAN_MOTION_DOT":"0.00041437","MEAN_MOTION":"15.08815569","INCLINATION":"53.2161","MEAN_ANOMALY":"251.6440"},{"TIME_SYSTEM":"UTC","TLE_LINE1":"1 52607U 22052K   22255.16667824 -.00023964  00000-0 -14922-2 0  9993","TLE_LINE2":"2 52607  53.2149 245.6662 0001720  57.3003 351.5537 15.08848352 18748","SEMIMAJOR_AXIS":"6917.855","PERIAPSIS":"538.530","EPOCH":"2022-09-12T04:00:00.999936","MEAN_MOTION_DDOT":"0.0000000000000","EPHEMERIS_TYPE":"0","OBJECT_TYPE":"PAYLOAD","REV_AT_EPOCH":"1874","SITE":"AFETR","LAUNCH_DATE":"2022-05-14","COUNTRY_CODE":"US","APOAPSIS":"540.910","OBJECT_ID":"2022-052K","RA_OF_ASC_NODE":"245.6662","DECAY_DATE":null,"ELEMENT_SET_NO":"999","OBJECT_NAME":"STARLINK-3947","MEAN_MOTION":"15.08848352","INCLINATION":"53.2149","MEAN_MOTION_DOT":"-0.00023964","MEAN_ANOMALY":"351.5537","MEAN_ELEMENT_THEORY":"SGP4","FILE":"3569384","NORAD_CAT_ID":"52607","CLASSIFICATION_TYPE":"U","BSTAR":"-0.00149220000000","ARG_OF_PERICENTER":"57.3003","REF_FRAME":"TEME","GP_ID":"212360249","ECCENTRICITY":"0.00017200","RCS_SIZE":"LARGE","PERIOD":"95.437","CENTER_NAME":"EARTH"},{"LAUNCH_DATE":"2022-05-14","SITE":"AFETR","APOAPSIS":"541.170","COUNTRY_CODE":"US","OBJECT_ID":"2022-052L","RA_OF_ASC_NODE":"241.7859","TIME_SYSTEM":"UTC","PERIAPSIS":"538.456","SEMIMAJOR_AXIS":"6917.948","MEAN_MOTION_DDOT":"0.0000000000000","EPOCH":"2022-09-11T22:00:00.999936","TLE_LINE2":"2 52608  53.2164 241.7859 0001962  49.9683 287.6508 15.08817908  1304","TLE_LINE1":"1 52608U 22052L   22254.91667824  .00043639  00000-0  27447-2 0  9991","EPHEMERIS_TYPE":"0","REV_AT_EPOCH":"130","OBJECT_TYPE":"PAYLOAD","NORAD_CAT_ID":"52608","FILE":"3569361","MEAN_ELEMENT_THEORY":"SGP4","BSTAR":"0.00274470000000","ARG_OF_PERICENTER":"49.9683","CLASSIFICATION_TYPE":"U","GP_ID":"212359013","ECCENTRICITY":"0.00019620","REF_FRAME":"TEME","CENTER_NAME":"EARTH","RCS_SIZE":"LARGE","PERIOD":"95.439","DECAY_DATE":null,"ELEMENT_SET_NO":"999","OBJECT_NAME":"STARLINK-3979","MEAN_MOTION_DOT":"0.00043639","INCLINATION":"53.2164","MEAN_MOTION":"15.08817908","MEAN_ANOMALY":"287.6508"},{"BSTAR":"-0.00187920000000","CLASSIFICATION_TYPE":"U","ARG_OF_PERICENTER":"45.6603","FILE":"3569387","NORAD_CAT_ID":"52609","MEAN_ELEMENT_THEORY":"SGP4","RCS_SIZE":"LARGE","PERIOD":"95.437","CENTER_NAME":"EARTH","ECCENTRICITY":"0.00020950","GP_ID":"212360271","REF_FRAME":"TEME","OBJECT_NAME":"STARLINK-3997","ELEMENT_SET_NO":"999","DECAY_DATE":null,"MEAN_ANOMALY":"245.4622","MEAN_MOTION_DOT":"-0.00030082","MEAN_MOTION":"15.08851602","INCLINATION":"53.2178","APOAPSIS":"541.159","COUNTRY_CODE":"US","LAUNCH_DATE":"2022-05-14","SITE":"AFETR","RA_OF_ASC_NODE":"240.6791","OBJECT_ID":"2022-052M","MEAN_MOTION_DDOT":"0.0000000000000","PERIAPSIS":"538.261","SEMIMAJOR_AXIS":"6917.845","EPOCH":"2022-09-12T04:00:00.999936","TLE_LINE1":"1 52609U 22052M   22255.16667824 -.00030082  00000-0 -18792-2 0  9993","TLE_LINE2":"2 52609  53.2178 240.6791 0002095  45.6603 245.4622 15.08851602 18829","TIME_SYSTEM":"UTC","REV_AT_EPOCH":"1882","OBJECT_TYPE":"PAYLOAD","EPHEMERIS_TYPE":"0"},{"RA_OF_ASC_NODE":"245.6685","OBJECT_ID":"2022-052N","APOAPSIS":"541.338","COUNTRY_CODE":"US","LAUNCH_DATE":"2022-05-14","SITE":"AFETR","REV_AT_EPOCH":"1874","OBJECT_TYPE":"PAYLOAD","EPHEMERIS_TYPE":"0","PERIAPSIS":"538.361","SEMIMAJOR_AXIS":"6917.985","EPOCH":"2022-09-12T04:00:00.999936","MEAN_MOTION_DDOT":"0.0000000000000","TLE_LINE2":"2 52610  53.2149 245.6685 0002152  41.3258 347.4320 15.08805865 18748","TLE_LINE1":"1 52610U 22052N   22255.16667824  .00025960  00000-0  16447-2 0  9997","TIME_SYSTEM":"UTC","RCS_SIZE":"LARGE","PERIOD":"95.440","CENTER_NAME":"EARTH","REF_FRAME":"TEME","GP_ID":"212360278","ECCENTRICITY":"0.00021520","BSTAR":"0.00164470000000","ARG_OF_PERICENTER":"41.3258","CLASSIFICATION_TYPE":"U","FILE":"3569385","NORAD_CAT_ID":"52610","MEAN_ELEMENT_THEORY":"SGP4","MEAN_ANOMALY":"347.4320","MEAN_MOTION_DOT":"0.00025960","MEAN_MOTION":"15.08805865","INCLINATION":"53.2149","OBJECT_NAME":"STARLINK-3998","ELEMENT_SET_NO":"999","DECAY_DATE":null},{"TLE_LINE2":"2 52611  53.2137 245.6679 0001937  52.6176  16.2396 15.08853692 18748","TLE_LINE1":"1 52611U 22052P   22255.16667824 -.00047021  00000-0 -29545-2 0  9995","EPOCH":"2022-09-12T04:00:00.999936","PERIAPSIS":"538.364","SEMIMAJOR_AXIS":"6917.839","MEAN_MOTION_DDOT":"0.0000000000000","TIME_SYSTEM":"UTC","OBJECT_TYPE":"PAYLOAD","REV_AT_EPOCH":"1874","EPHEMERIS_TYPE":"0","COUNTRY_CODE":"US","APOAPSIS":"541.044","SITE":"AFETR","LAUNCH_DATE":"2022-05-14","RA_OF_ASC_NODE":"245.6679","OBJECT_ID":"2022-052P","OBJECT_NAME":"STARLINK-3980","ELEMENT_SET_NO":"999","DECAY_DATE":null,"MEAN_ANOMALY":"16.2396","MEAN_MOTION":"15.08853692","INCLINATION":"53.2137","MEAN_MOTION_DOT":"-0.00047021","CLASSIFICATION_TYPE":"U","BSTAR":"-0.00295450000000","ARG_OF_PERICENTER":"52.6176","MEAN_ELEMENT_THEORY":"SGP4","FILE":"3569385","NORAD_CAT_ID":"52611","RCS_SIZE":"LARGE","PERIOD":"95.437","CENTER_NAME":"EARTH","GP_ID":"212360276","ECCENTRICITY":"0.00019370","REF_FRAME":"TEME"},{"DECAY_DATE":null,"ELEMENT_SET_NO":"999","OBJECT_NAME":"STARLINK-4002","MEAN_MOTION":"15.08828777","INCLINATION":"53.2177","MEAN_MOTION_DOT":"0.00017416","MEAN_ANOMALY":"306.1464","MEAN_ELEMENT_THEORY":"SGP4","FILE":"3569361","NORAD_CAT_ID":"52612","ARG_OF_PERICENTER":"51.5204","BSTAR":"0.00111000000000","CLASSIFICATION_TYPE":"U","GP_ID":"212359429","REF_FRAME":"TEME","ECCENTRICITY":"0.00018350","RCS_SIZE":"LARGE","PERIOD":"95.438","CENTER_NAME":"EARTH","TIME_SYSTEM":"UTC","TLE_LINE1":"1 52612U 22052Q   22254.91667824  .00017416  00000-0  11100-2 0  9999","TLE_LINE2":"2 52612  53.2177 241.7931 0001835  51.5204 306.1464 15.08828777  1305","PERIAPSIS":"538.510","SEMIMAJOR_AXIS":"6917.915","MEAN_MOTION_DDOT":"0.0000000000000","EPOCH":"2022-09-11T22:00:00.999936","EPHEMERIS_TYPE":"0","OBJECT_TYPE":"PAYLOAD","REV_AT_EPOCH":"130","SITE":"AFETR","LAUNCH_DATE":"2022-05-14","COUNTRY_CODE":"US","APOAPSIS":"541.049","OBJECT_ID":"2022-052Q","RA_OF_ASC_NODE":"241.7931"},{"ELEMENT_SET_NO":"999","DECAY_DATE":null,"OBJECT_NAME":"STARLINK-3921","MEAN_MOTION":"15.08849994","INCLINATION":"53.2144","MEAN_MOTION_DOT":"-0.00011092","MEAN_ANOMALY":"18.1532","MEAN_ELEMENT_THEORY":"SGP4","FILE":"3569361","NORAD_CAT_ID":"52613","BSTAR":"-0.00067972000000","CLASSIFICATION_TYPE":"U","ARG_OF_PERICENTER":"74.5021","GP_ID":"212359168","REF_FRAME":"TEME","ECCENTRICITY":"0.00014390","RCS_SIZE":"LARGE","PERIOD":"95.437","CENTER_NAME":"EARTH","TIME_SYSTEM":"UTC","TLE_LINE1":"1 52613U 22052R   22254.91667824 -.00011092  00000-0 -67972-3 0  9995","TLE_LINE2":"2 52613  53.2144 231.7938 0001439  74.5021  18.1532 15.08849994  1308","SEMIMAJOR_AXIS":"6917.850","PERIAPSIS":"538.719","EPOCH":"2022-09-11T22:00:00.999936","MEAN_MOTION_DDOT":"0.0000000000000","EPHEMERIS_TYPE":"0","OBJECT_TYPE":"PAYLOAD","REV_AT_EPOCH":"130","SITE":"AFETR","LAUNCH_DATE":"2022-05-14","COUNTRY_CODE":"US","APOAPSIS":"540.710","OBJECT_ID":"2022-052R","RA_OF_ASC_NODE":"231.7938"},{"ELEMENT_SET_NO":"999","DECAY_DATE":null,"OBJECT_NAME":"STARLINK-3982","MEAN_MOTION_DOT":"-0.00004913","INCLINATION":"53.2144","MEAN_MOTION":"15.08846563","MEAN_ANOMALY":"12.3540","NORAD_CAT_ID":"52614","FILE":"3569361","MEAN_ELEMENT_THEORY":"SGP4","CLASSIFICATION_TYPE":"U","BSTAR":"-0.00029075000000","ARG_OF_PERICENTER":"60.3107","REF_FRAME":"TEME","GP_ID":"212359890","ECCENTRICITY":"0.00015840","RCS_SIZE":"LARGE","CENTER_NAME":"EARTH","PERIOD":"95.437","TIME_SYSTEM":"UTC","EPOCH":"2022-09-11T22:00:00.999936","PERIAPSIS":"538.630","SEMIMAJOR_AXIS":"6917.860","MEAN_MOTION_DDOT":"0.0000000000000","TLE_LINE1":"1 52614U 22052S   22254.91667824 -.00004913  00000-0 -29075-3 0  9992","TLE_LINE2":"2 52614  53.2144 231.7920 0001584  60.3107  12.3540 15.08846563  1303","EPHEMERIS_TYPE":"0","REV_AT_EPOCH":"130","OBJECT_TYPE":"PAYLOAD","LAUNCH_DATE":"2022-05-14","SITE":"AFETR","APOAPSIS":"540.821","COUNTRY_CODE":"US","OBJECT_ID":"2022-052S","RA_OF_ASC_NODE":"231.7920"},{"MEAN_MOTION_DDOT":"0.0000000000000","PERIAPSIS":"538.547","SEMIMAJOR_AXIS":"6917.846","EPOCH":"2022-09-12T04:00:00.999936","TLE_LINE2":"2 52615  53.2154 245.6658 0001682  60.0283  28.8287 15.08851236 18747","TLE_LINE1":"1 52615U 22052T   22255.16667824 -.00033778  00000-0 -21135-2 0  9990","TIME_SYSTEM":"UTC","REV_AT_EPOCH":"1874","OBJECT_TYPE":"PAYLOAD","EPHEMERIS_TYPE":"0","APOAPSIS":"540.875","COUNTRY_CODE":"US","LAUNCH_DATE":"2022-05-14","SITE":"AFETR","RA_OF_ASC_NODE":"245.6658","OBJECT_ID":"2022-052T","OBJECT_NAME":"STARLINK-4011","ELEMENT_SET_NO":"999","DECAY_DATE":null,"MEAN_ANOMALY":"28.8287","MEAN_MOTION_DOT":"-0.00033778","MEAN_MOTION":"15.08851236","INCLINATION":"53.2154","ARG_OF_PERICENTER":"60.0283","BSTAR":"-0.00211350000000","CLASSIFICATION_TYPE":"U","FILE":"3569399","NORAD_CAT_ID":"52615","MEAN_ELEMENT_THEORY":"SGP4","RCS_SIZE":"LARGE","PERIOD":"95.437","CENTER_NAME":"EARTH","GP_ID":"212360305","ECCENTRICITY":"0.00016820","REF_FRAME":"TEME"}];
